CCSDS_OMM_VERS = 2.0
CREATION_DATE  = 
ORIGINATOR     = 

OBJECT_NAME    = STARLINK-35816
OBJECT_ID      = 2025-263Q
CENTER_NAME    = EARTH
REF_FRAME      = TEME
TIME_SYSTEM    = UTC
MEAN_ELEMENT_THEORY = SGP/SGP4

EPOCH          = 2025-12-10T04:00:01.998720
MEAN_MOTION    = 15.50663379
ECCENTRICITY   = .0001718
INCLINATION    = 43.0006
RA_OF_ASC_NODE = 140.1456
ARG_OF_PERICENTER = 265.8314
MEAN_ANOMALY   = 64.6973

EPHEMERIS_TYPE = 0
CLASSIFICATION_TYPE = U
NORAD_CAT_ID   = 66499
ELEMENT_SET_NO = 999
REV_AT_EPOCH   = 522
BSTAR          = -.4038E-1
MEAN_MOTION_DOT = -.2109073E-1
MEAN_MOTION_DDOT = 0

CCSDS_OMM_VERS = 2.0
CREATION_DATE  = 
ORIGINATOR     = 

OBJECT_NAME    = STARLINK-35894
OBJECT_ID      = 2025-263R
CENTER_NAME    = EARTH
REF_FRAME      = TEME
TIME_SYSTEM    = UTC
MEAN_ELEMENT_THEORY = SGP/SGP4

EPOCH          = 2025-12-10T04:00:01.998720
MEAN_MOTION    = 15.48346358
ECCENTRICITY   = .0001479
INCLINATION    = 43.0007
RA_OF_ASC_NODE = 140.2673
ARG_OF_PERICENTER = 272.3007
MEAN_ANOMALY   = 9.1479

EPHEMERIS_TYPE = 0
CLASSIFICATION_TYPE = U
NORAD_CAT_ID   = 66500
ELEMENT_SET_NO = 999
REV_AT_EPOCH   = 522
BSTAR          = -.38567E-1
MEAN_MOTION_DOT = -.1879974E-1
MEAN_MOTION_DDOT = 0

CCSDS_OMM_VERS = 2.0
CREATION_DATE  = 
ORIGINATOR     = 

OBJECT_NAME    = STARLINK-35897
OBJECT_ID      = 2025-263S
CENTER_NAME    = EARTH
REF_FRAME      = TEME
TIME_SYSTEM    = UTC
MEAN_ELEMENT_THEORY = SGP/SGP4

EPOCH          = 2025-12-10T04:00:01.998720
MEAN_MOTION    = 15.50589151
ECCENTRICITY   = .0001686
INCLINATION    = 43.0007
RA_OF_ASC_NODE = 140.1422
ARG_OF_PERICENTER = 267.7712
MEAN_ANOMALY   = 64.6936

EPHEMERIS_TYPE = 0
CLASSIFICATION_TYPE = U
NORAD_CAT_ID   = 66501
ELEMENT_SET_NO = 999
REV_AT_EPOCH   = 522
BSTAR          = -.66422E-3
MEAN_MOTION_DOT = -.39128E-3
MEAN_MOTION_DDOT = 0

CCSDS_OMM_VERS = 2.0
CREATION_DATE  = 
ORIGINATOR     = 

OBJECT_NAME    = STARLINK-35922
OBJECT_ID      = 2025-263T
CENTER_NAME    = EARTH
REF_FRAME      = TEME
TIME_SYSTEM    = UTC
MEAN_ELEMENT_THEORY = SGP/SGP4

EPOCH          = 2025-12-10T04:00:01.998720
MEAN_MOTION    = 15.50594207
ECCENTRICITY   = .0001623
INCLINATION    = 43.0008
RA_OF_ASC_NODE = 140.1273
ARG_OF_PERICENTER = 266.2915
MEAN_ANOMALY   = 71.9477

EPHEMERIS_TYPE = 0
CLASSIFICATION_TYPE = U
NORAD_CAT_ID   = 66502
ELEMENT_SET_NO = 999
REV_AT_EPOCH   = 522
BSTAR          = -.16901E-2
MEAN_MOTION_DOT = -.98312E-3
MEAN_MOTION_DDOT = 0

CCSDS_OMM_VERS = 2.0
CREATION_DATE  = 
ORIGINATOR     = 

OBJECT_NAME    = STARLINK-35917
OBJECT_ID      = 2025-263U
CENTER_NAME    = EARTH
REF_FRAME      = TEME
TIME_SYSTEM    = UTC
MEAN_ELEMENT_THEORY = SGP/SGP4

EPOCH          = 2025-12-09T14:00:01.999872
MEAN_MOTION    = 15.50589047
ECCENTRICITY   = .00014441
INCLINATION    = 43.0005
RA_OF_ASC_NODE = 143.5315
ARG_OF_PERICENTER = 273.2768
MEAN_ANOMALY   = 48.6663

EPHEMERIS_TYPE = 0
CLASSIFICATION_TYPE = U
NORAD_CAT_ID   = 66503
ELEMENT_SET_NO = 999
REV_AT_EPOCH   = 512
BSTAR          = -.1175575E-2
MEAN_MOTION_DOT = -.68729E-3
MEAN_MOTION_DDOT = 0

CCSDS_OMM_VERS = 2.0
CREATION_DATE  = 
ORIGINATOR     = 

OBJECT_NAME    = STARLINK-35916
OBJECT_ID      = 2025-263V
CENTER_NAME    = EARTH
REF_FRAME      = TEME
TIME_SYSTEM    = UTC
MEAN_ELEMENT_THEORY = SGP/SGP4

EPOCH          = 2025-12-09T22:39:36.400320
MEAN_MOTION    = 15.40719058
ECCENTRICITY   = .0001537
INCLINATION    = 43.0001
RA_OF_ASC_NODE = 142.7409
ARG_OF_PERICENTER = 268.6806
MEAN_ANOMALY   = 91.3875

EPHEMERIS_TYPE = 0
CLASSIFICATION_TYPE = U
NORAD_CAT_ID   = 66504
ELEMENT_SET_NO = 999
REV_AT_EPOCH   = 511
BSTAR          = .11341E-2
MEAN_MOTION_DOT = .47394E-3
MEAN_MOTION_DDOT = 0

CCSDS_OMM_VERS = 2.0
CREATION_DATE  = 
ORIGINATOR     = 

OBJECT_NAME    = STARLINK-34766
OBJECT_ID      = 2025-263W
CENTER_NAME    = EARTH
REF_FRAME      = TEME
TIME_SYSTEM    = UTC
MEAN_ELEMENT_THEORY = SGP/SGP4

EPOCH          = 2025-12-10T04:00:01.998720
MEAN_MOTION    = 15.50625472
ECCENTRICITY   = .0001788
INCLINATION    = 43.0009
RA_OF_ASC_NODE = 140.1365
ARG_OF_PERICENTER = 266.3406
MEAN_ANOMALY   = 68.0388

EPHEMERIS_TYPE = 0
CLASSIFICATION_TYPE = U
NORAD_CAT_ID   = 66505
ELEMENT_SET_NO = 999
REV_AT_EPOCH   = 522
BSTAR          = -.22816E-2
MEAN_MOTION_DOT = -.13218E-2
MEAN_MOTION_DDOT = 0

CCSDS_OMM_VERS = 2.0
CREATION_DATE  = 
ORIGINATOR     = 

OBJECT_NAME    = STARLINK-34765
OBJECT_ID      = 2025-263X
CENTER_NAME    = EARTH
REF_FRAME      = TEME
TIME_SYSTEM    = UTC
MEAN_ELEMENT_THEORY = SGP/SGP4

EPOCH          = 2025-12-10T04:00:01.998720
MEAN_MOTION    = 15.50568807
ECCENTRICITY   = .0001615
INCLINATION    = 43.0008
RA_OF_ASC_NODE = 140.1325
ARG_OF_PERICENTER = 264.6529
MEAN_ANOMALY   = 71.6604

EPHEMERIS_TYPE = 0
CLASSIFICATION_TYPE = U
NORAD_CAT_ID   = 66506
ELEMENT_SET_NO = 999
REV_AT_EPOCH   = 522
BSTAR          = -.33849E-3
MEAN_MOTION_DOT = -.20141E-3
MEAN_MOTION_DDOT = 0

CCSDS_OMM_VERS = 2.0
CREATION_DATE  = 
ORIGINATOR     = 

OBJECT_NAME    = STARLINK-34767
OBJECT_ID      = 2025-263Y
CENTER_NAME    = EARTH
REF_FRAME      = TEME
TIME_SYSTEM    = UTC
MEAN_ELEMENT_THEORY = SGP/SGP4

EPOCH          = 2025-12-10T04:00:01.998720
MEAN_MOTION    = 15.50629653
ECCENTRICITY   = .000159
INCLINATION    = 43.0009
RA_OF_ASC_NODE = 140.1219
ARG_OF_PERICENTER = 266.3008
MEAN_ANOMALY   = 73.8205

EPHEMERIS_TYPE = 0
CLASSIFICATION_TYPE = U
NORAD_CAT_ID   = 66507
ELEMENT_SET_NO = 999
REV_AT_EPOCH   = 522
BSTAR          = -.21135E-2
MEAN_MOTION_DOT = -.12263E-2
MEAN_MOTION_DDOT = 0

CCSDS_OMM_VERS = 2.0
CREATION_DATE  = 
ORIGINATOR     = 

OBJECT_NAME    = STARLINK-35608
OBJECT_ID      = 2025-263Z
CENTER_NAME    = EARTH
REF_FRAME      = TEME
TIME_SYSTEM    = UTC
MEAN_ELEMENT_THEORY = SGP/SGP4

EPOCH          = 2025-12-10T04:00:01.998720
MEAN_MOTION    = 15.50637556
ECCENTRICITY   = .0001655
INCLINATION    = 43.0008
RA_OF_ASC_NODE = 140.1081
ARG_OF_PERICENTER = 265.4242
MEAN_ANOMALY   = 80.4555

EPHEMERIS_TYPE = 0
CLASSIFICATION_TYPE = U
NORAD_CAT_ID   = 66508
ELEMENT_SET_NO = 999
REV_AT_EPOCH   = 522
BSTAR          = -.2647E-2
MEAN_MOTION_DOT = -.152959E-2
MEAN_MOTION_DDOT = 0

CCSDS_OMM_VERS = 2.0
CREATION_DATE  = 
ORIGINATOR     = 

OBJECT_NAME    = STARLINK-35598
OBJECT_ID      = 2025-263AA
CENTER_NAME    = EARTH
REF_FRAME      = TEME
TIME_SYSTEM    = UTC
MEAN_ELEMENT_THEORY = SGP/SGP4

EPOCH          = 2025-12-10T04:00:01.998720
MEAN_MOTION    = 15.50579888
ECCENTRICITY   = .0001479
INCLINATION    = 43.0008
RA_OF_ASC_NODE = 140.0871
ARG_OF_PERICENTER = 267.3339
MEAN_ANOMALY   = 86.2350

EPHEMERIS_TYPE = 0
CLASSIFICATION_TYPE = U
NORAD_CAT_ID   = 66509
ELEMENT_SET_NO = 999
REV_AT_EPOCH   = 522
BSTAR          = -.84913E-3
MEAN_MOTION_DOT = -.49841E-3
MEAN_MOTION_DDOT = 0

CCSDS_OMM_VERS = 2.0
CREATION_DATE  = 
ORIGINATOR     = 

OBJECT_NAME    = STARLINK-35600
OBJECT_ID      = 2025-263AB
CENTER_NAME    = EARTH
REF_FRAME      = TEME
TIME_SYSTEM    = UTC
MEAN_ELEMENT_THEORY = SGP/SGP4

EPOCH          = 2025-12-10T04:00:01.998720
MEAN_MOTION    = 15.50635161
ECCENTRICITY   = .0001639
INCLINATION    = 43.0008
RA_OF_ASC_NODE = 140.1016
ARG_OF_PERICENTER = 264.9713
MEAN_ANOMALY   = 82.8212

EPHEMERIS_TYPE = 0
CLASSIFICATION_TYPE = U
NORAD_CAT_ID   = 66510
ELEMENT_SET_NO = 999
REV_AT_EPOCH   = 522
BSTAR          = -.24806E-2
MEAN_MOTION_DOT = -.143519E-2
MEAN_MOTION_DDOT = 0

