STARLINK-35816          
1 66499U 25263Q   25344.16668980 -.02109073  00000+0 -40380-1 0  9993
2 66499  43.0006 140.1456 0001718 265.8314  64.6973 15.50663379  5225
STARLINK-35894          
1 66500U 25263R   25344.16668980 -.01879974  00000+0 -38567-1 0  9993
2 66500  43.0007 140.2673 0001479 272.3007   9.1479 15.48346358  5224
STARLINK-35897          
1 66501U 25263S   25344.16668980 -.00039128  00000+0 -66422-3 0  9995
2 66501  43.0007 140.1422 0001686 267.7712  64.6936 15.50589151  5224
STARLINK-35922          
1 66502U 25263T   25344.16668980 -.00098312  00000+0 -16901-2 0  9992
2 66502  43.0008 140.1273 0001623 266.2915  71.9477 15.50594207  5229
STARLINK-35917          
1 66503U 25263U   25343.58335648 -.00068729  00000+0 -11756-2 0  9992
2 66503  43.0005 143.5315 0001444 273.2768  48.6663 15.50589047  5129
STARLINK-35916          
1 66504U 25263V   25343.94417130  .00047394  00000+0  11341-2 0  9993
2 66504  43.0001 142.7409 0001537 268.6806  91.3875 15.40719058  5110
STARLINK-34766          
1 66505U 25263W   25344.16668980 -.00132180  00000+0 -22816-2 0  9999
2 66505  43.0009 140.1365 0001788 266.3406  68.0388 15.50625472  5220
STARLINK-34765          
1 66506U 25263X   25344.16668980 -.00020141  00000+0 -33849-3 0  9992
2 66506  43.0008 140.1325 0001615 264.6529  71.6604 15.50568807  5221
STARLINK-34767          
1 66507U 25263Y   25344.16668980 -.00122630  00000+0 -21135-2 0  9993
2 66507  43.0009 140.1219 0001590 266.3008  73.8205 15.50629653  5226
STARLINK-35608          
1 66508U 25263Z   25344.16668980 -.00152959  00000+0 -26470-2 0  9998
2 66508  43.0008 140.1081 0001655 265.4242  80.4555 15.50637556  5228
STARLINK-35598          
1 66509U 25263AA  25344.16668980 -.00049841  00000+0 -84913-3 0  9991
2 66509  43.0008 140.0871 0001479 267.3339  86.2350 15.50579888  5227
STARLINK-35600          
1 66510U 25263AB  25344.16668980 -.00143519  00000+0 -24806-2 0  9994
2 66510  43.0008 140.1016 0001639 264.9713  82.8212 15.50635161  5224
